[{"OBJECT_NAME":"SNIPE 2","OBJECT_ID":"2023-072C","EPOCH":"2026-03-09T11:21:04.371264","MEAN_MOTION":15.41694724,"ECCENTRICITY":0.00049327,"INCLINATION":97.5357,"RA_OF_ASC_NODE":273.9779,"ARG_OF_PERICENTER":6.2338,"MEAN_ANOMALY":353.8968,"EPHEMERIS_TYPE":0,"CLASSIFICATION_TYPE":"U","NORAD_CAT_ID":56745,"ELEMENT_SET_NO":999,"REV_AT_EPOCH":15485,"BSTAR":0.00072334045,"MEAN_MOTION_DOT":0.00030525,"MEAN_MOTION_DDOT":0},{"OBJECT_NAME":"CZ-2C R\/B","OBJECT_ID":"2025-266D","EPOCH":"2026-03-09T20:29:03.778080","MEAN_MOTION":15.32844431,"ECCENTRICITY":0.00801532,"INCLINATION":52.0528,"RA_OF_ASC_NODE":275.4841,"ARG_OF_PERICENTER":115.4113,"MEAN_ANOMALY":245.5197,"EPHEMERIS_TYPE":0,"CLASSIFICATION_TYPE":"U","NORAD_CAT_ID":66548,"ELEMENT_SET_NO":999,"REV_AT_EPOCH":1696,"BSTAR":0.00054134058,"MEAN_MOTION_DOT":0.00018939,"MEAN_MOTION_DDOT":0}]
